start=new Date('2021-08-24T00:00:00.000Z').valueOf();
sats=[{"REV_AT_EPOCH":"358","ECCENTRICITY":"0.00016910","TLE_LINE2":"2 48446  53.0538  68.1262 0001691  83.5963 256.8360 15.06385923  3586","REF_FRAME":"TEME","NORAD_CAT_ID":"48446","BSTAR":"0.00164020000000","APOAPSIS":"548.428","MEAN_ELEMENT_THEORY":"SGP4","ARG_OF_PERICENTER":"83.5963","EPHEMERIS_TYPE":"0","TIME_SYSTEM":"UTC","ELEMENT_SET_NO":"999","MEAN_MOTION":"15.06385923","DECAY_DATE":null,"EPOCH":"2021-08-23T22:00:00.999936","SEMIMAJOR_AXIS":"6925.392","INCLINATION":"53.0538","SITE":"AFETR","PERIAPSIS":"546.086","RCS_SIZE":"LARGE","PERIOD":"95.593","MEAN_ANOMALY":"256.8360","TLE_LINE1":"1 48446U 21040U   21235.91667824  .00024224  00000-0  16402-2 0  9998","OBJECT_TYPE":"PAYLOAD","LAUNCH_DATE":"2021-05-09","COUNTRY_CODE":"US","FILE":"3102124","MEAN_MOTION_DDOT":"0.0000000000000","CENTER_NAME":"EARTH","CLASSIFICATION_TYPE":"U","OBJECT_ID":"2021-040U","MEAN_MOTION_DOT":"0.00024224","GP_ID":"183331947","RA_OF_ASC_NODE":"68.1262","OBJECT_NAME":"STARLINK-2247"},{"GP_ID":"183332037","MEAN_MOTION_DOT":"0.00022995","OBJECT_NAME":"STARLINK-2269","RA_OF_ASC_NODE":"68.1266","CLASSIFICATION_TYPE":"U","OBJECT_ID":"2021-040V","MEAN_MOTION_DDOT":"0.0000000000000","FILE":"3102124","COUNTRY_CODE":"US","CENTER_NAME":"EARTH","MEAN_ANOMALY":"271.0501","LAUNCH_DATE":"2021-05-09","OBJECT_TYPE":"PAYLOAD","TLE_LINE1":"1 48447U 21040V   21235.91667824  .00022995  00000-0  15584-2 0  9992","PERIAPSIS":"546.049","SITE":"AFETR","PERIOD":"95.593","RCS_SIZE":"LARGE","MEAN_MOTION":"15.06380130","DECAY_DATE":null,"ELEMENT_SET_NO":"999","TIME_SYSTEM":"UTC","INCLINATION":"53.0521","SEMIMAJOR_AXIS":"6925.409","EPOCH":"2021-08-23T22:00:00.999936","NORAD_CAT_ID":"48447","EPHEMERIS_TYPE":"0","ARG_OF_PERICENTER":"89.3867","MEAN_ELEMENT_THEORY":"SGP4","APOAPSIS":"548.500","BSTAR":"0.00155840000000","ECCENTRICITY":"0.00017700","REV_AT_EPOCH":"358","REF_FRAME":"TEME","TLE_LINE2":"2 48447  53.0521  68.1266 0001770  89.3867 271.0501 15.06380130  3589"},{"INCLINATION":"53.0531","SEMIMAJOR_AXIS":"6925.407","EPOCH":"2021-08-23T22:00:00.999936","DECAY_DATE":null,"MEAN_MOTION":"15.06380789","ELEMENT_SET_NO":"999","TIME_SYSTEM":"UTC","PERIOD":"95.593","RCS_SIZE":"LARGE","PERIAPSIS":"545.919","SITE":"AFETR","REF_FRAME":"TEME","TLE_LINE2":"2 48448  53.0531  68.1271 0001954 104.6446 120.8352 15.06380789  3579","ECCENTRICITY":"0.00019540","REV_AT_EPOCH":"357","EPHEMERIS_TYPE":"0","ARG_OF_PERICENTER":"104.6446","MEAN_ELEMENT_THEORY":"SGP4","APOAPSIS":"548.626","BSTAR":"0.00188700000000","NORAD_CAT_ID":"48448","OBJECT_ID":"2021-040W","CLASSIFICATION_TYPE":"U","OBJECT_NAME":"STARLINK-2632","RA_OF_ASC_NODE":"68.1271","GP_ID":"183331516","MEAN_MOTION_DOT":"0.00027923","LAUNCH_DATE":"2021-05-09","OBJECT_TYPE":"PAYLOAD","TLE_LINE1":"1 48448U 21040W   21235.91667824  .00027923  00000-0  18870-2 0  9990","MEAN_ANOMALY":"120.8352","CENTER_NAME":"EARTH","MEAN_MOTION_DDOT":"0.0000000000000","FILE":"3102124","COUNTRY_CODE":"US"},{"GP_ID":"183332127","MEAN_MOTION_DOT":"0.00021765","OBJECT_NAME":"STARLINK-2655","RA_OF_ASC_NODE":"68.1265","CLASSIFICATION_TYPE":"U","OBJECT_ID":"2021-040X","MEAN_MOTION_DDOT":"0.0000000000000","FILE":"3102124","COUNTRY_CODE":"US","CENTER_NAME":"EARTH","MEAN_ANOMALY":"296.4252","LAUNCH_DATE":"2021-05-09","OBJECT_TYPE":"PAYLOAD","TLE_LINE1":"1 48449U 21040X   21235.91667824  .00021765  00000-0  14759-2 0  9991","PERIAPSIS":"546.054","SITE":"AFETR","PERIOD":"95.593","RCS_SIZE":"LARGE","MEAN_MOTION":"15.06391776","DECAY_DATE":null,"ELEMENT_SET_NO":"999","TIME_SYSTEM":"UTC","INCLINATION":"53.0526","SEMIMAJOR_AXIS":"6925.374","EPOCH":"2021-08-23T22:00:00.999936","NORAD_CAT_ID":"48449","EPHEMERIS_TYPE":"0","MEAN_ELEMENT_THEORY":"SGP4","ARG_OF_PERICENTER":"84.0154","APOAPSIS":"548.424","BSTAR":"0.00147590000000","ECCENTRICITY":"0.00017110","REV_AT_EPOCH":"358","REF_FRAME":"TEME","TLE_LINE2":"2 48449  53.0526  68.1265 0001711  84.0154 296.4252 15.06391776  3583"},{"NORAD_CAT_ID":"48450","APOAPSIS":"548.406","BSTAR":"0.00142070000000","EPHEMERIS_TYPE":"0","ARG_OF_PERICENTER":"83.3123","MEAN_ELEMENT_THEORY":"SGP4","REV_AT_EPOCH":"358","ECCENTRICITY":"0.00016400","TLE_LINE2":"2 48450  53.0522  68.1266 0001640  83.3123 317.1034 15.06381386  3586","REF_FRAME":"TEME","SITE":"AFETR","PERIAPSIS":"546.135","PERIOD":"95.593","RCS_SIZE":"LARGE","TIME_SYSTEM":"UTC","DECAY_DATE":null,"MEAN_MOTION":"15.06381386","ELEMENT_SET_NO":"999","SEMIMAJOR_AXIS":"6925.406","EPOCH":"2021-08-23T22:00:00.999936","INCLINATION":"53.0522","COUNTRY_CODE":"US","MEAN_MOTION_DDOT":"0.0000000000000","FILE":"3102124","CENTER_NAME":"EARTH","MEAN_ANOMALY":"317.1034","TLE_LINE1":"1 48450U 21040Y   21235.91667824  .00020932  00000-0  14207-2 0  9996","LAUNCH_DATE":"2021-05-09","OBJECT_TYPE":"PAYLOAD","MEAN_MOTION_DOT":"0.00020932","GP_ID":"183331606","RA_OF_ASC_NODE":"68.1266","OBJECT_NAME":"STARLINK-2660","CLASSIFICATION_TYPE":"U","OBJECT_ID":"2021-040Y"},{"PERIAPSIS":"546.085","SITE":"AFETR","PERIOD":"95.593","RCS_SIZE":"LARGE","DECAY_DATE":null,"MEAN_MOTION":"15.06388908","ELEMENT_SET_NO":"999","TIME_SYSTEM":"UTC","INCLINATION":"53.0529","SEMIMAJOR_AXIS":"6925.383","EPOCH":"2021-08-23T22:00:00.999936","NORAD_CAT_ID":"48451","EPHEMERIS_TYPE":"0","ARG_OF_PERICENTER":"82.9893","MEAN_ELEMENT_THEORY":"SGP4","APOAPSIS":"548.410","BSTAR":"0.00138620000000","ECCENTRICITY":"0.00016790","REV_AT_EPOCH":"358","REF_FRAME":"TEME","TLE_LINE2":"2 48451  53.0529  68.1274 0001679  82.9893 337.3936 15.06388908  3586","GP_ID":"183331696","MEAN_MOTION_DOT":"0.00020420","OBJECT_NAME":"STARLINK-2652","RA_OF_ASC_NODE":"68.1274","CLASSIFICATION_TYPE":"U","OBJECT_ID":"2021-040Z","MEAN_MOTION_DDOT":"0.0000000000000","FILE":"3102124","COUNTRY_CODE":"US","CENTER_NAME":"EARTH","MEAN_ANOMALY":"337.3936","LAUNCH_DATE":"2021-05-09","OBJECT_TYPE":"PAYLOAD","TLE_LINE1":"1 48451U 21040Z   21235.91667824  .00020420  00000-0  13862-2 0  9995"},{"PERIOD":"95.593","RCS_SIZE":"LARGE","SITE":"AFETR","PERIAPSIS":"546.076","SEMIMAJOR_AXIS":"6925.411","EPOCH":"2021-08-23T22:00:00.999936","INCLINATION":"53.0523","TIME_SYSTEM":"UTC","DECAY_DATE":null,"MEAN_MOTION":"15.06379682","ELEMENT_SET_NO":"999","APOAPSIS":"548.476","BSTAR":"0.00141150000000","EPHEMERIS_TYPE":"0","ARG_OF_PERICENTER":"88.5780","MEAN_ELEMENT_THEORY":"SGP4","NORAD_CAT_ID":"48452","TLE_LINE2":"2 48452  53.0523  68.1266 0001733  88.5780 316.9692 15.06379682  3581","REF_FRAME":"TEME","REV_AT_EPOCH":"358","ECCENTRICITY":"0.00017330","RA_OF_ASC_NODE":"68.1266","OBJECT_NAME":"STARLINK-2703","MEAN_MOTION_DOT":"0.00020794","GP_ID":"183331858","OBJECT_ID":"2021-040AA","CLASSIFICATION_TYPE":"U","CENTER_NAME":"EARTH","COUNTRY_CODE":"US","MEAN_MOTION_DDOT":"0.0000000000000","FILE":"3102124","TLE_LINE1":"1 48452U 21040AA  21235.91667824  .00020794  00000-0  14115-2 0  9992","LAUNCH_DATE":"2021-05-09","OBJECT_TYPE":"PAYLOAD","MEAN_ANOMALY":"316.9692"},{"APOAPSIS":"548.481","BSTAR":"0.00139060000000","EPHEMERIS_TYPE":"0","ARG_OF_PERICENTER":"85.5723","MEAN_ELEMENT_THEORY":"SGP4","NORAD_CAT_ID":"48453","TLE_LINE2":"2 48453  53.0538  68.1278 0001734  85.5723 354.8354 15.06378286  3581","REF_FRAME":"TEME","REV_AT_EPOCH":"358","ECCENTRICITY":"0.00017340","PERIOD":"95.594","RCS_SIZE":"LARGE","SITE":"AFETR","PERIAPSIS":"546.079","SEMIMAJOR_AXIS":"6925.415","EPOCH":"2021-08-23T22:00:00.999936","INCLINATION":"53.0538","TIME_SYSTEM":"UTC","DECAY_DATE":null,"MEAN_MOTION":"15.06378286","ELEMENT_SET_NO":"999","CENTER_NAME":"EARTH","COUNTRY_CODE":"US","MEAN_MOTION_DDOT":"0.0000000000000","FILE":"3102124","TLE_LINE1":"1 48453U 21040AB  21235.91667824  .00020480  00000-0  13906-2 0  9992","LAUNCH_DATE":"2021-05-09","OBJECT_TYPE":"PAYLOAD","MEAN_ANOMALY":"354.8354","RA_OF_ASC_NODE":"68.1278","OBJECT_NAME":"STARLINK-2620","MEAN_MOTION_DOT":"0.00020480","GP_ID":"183331786","OBJECT_ID":"2021-040AB","CLASSIFICATION_TYPE":"U"},{"PERIOD":"95.593","RCS_SIZE":"LARGE","SITE":"AFETR","PERIAPSIS":"546.013","SEMIMAJOR_AXIS":"6925.372","EPOCH":"2021-08-23T22:00:00.999936","INCLINATION":"53.0528","TIME_SYSTEM":"UTC","DECAY_DATE":null,"MEAN_MOTION":"15.06392191","ELEMENT_SET_NO":"999","APOAPSIS":"548.462","BSTAR":"0.00142740000000","EPHEMERIS_TYPE":"0","ARG_OF_PERICENTER":"79.2120","MEAN_ELEMENT_THEORY":"SGP4","NORAD_CAT_ID":"48454","TLE_LINE2":"2 48454  53.0528  68.1259 0001768  79.2120  21.1879 15.06392191  3585","REF_FRAME":"TEME","REV_AT_EPOCH":"358","ECCENTRICITY":"0.00017680","RA_OF_ASC_NODE":"68.1259","OBJECT_NAME":"STARLINK-2654","MEAN_MOTION_DOT":"0.00021039","GP_ID":"183331948","OBJECT_ID":"2021-040AC","CLASSIFICATION_TYPE":"U","CENTER_NAME":"EARTH","COUNTRY_CODE":"US","MEAN_MOTION_DDOT":"0.0000000000000","FILE":"3102124","TLE_LINE1":"1 48454U 21040AC  21235.91667824  .00021039  00000-0  14274-2 0  9993","LAUNCH_DATE":"2021-05-09","OBJECT_TYPE":"PAYLOAD","MEAN_ANOMALY":"21.1879"},{"CENTER_NAME":"EARTH","COUNTRY_CODE":"US","FILE":"3102124","MEAN_MOTION_DDOT":"0.0000000000000","TLE_LINE1":"1 48455U 21040AD  21235.91667824  .00022023  00000-0  14939-2 0  9996","OBJECT_TYPE":"PAYLOAD","LAUNCH_DATE":"2021-05-09","MEAN_ANOMALY":"28.9872","RA_OF_ASC_NODE":"68.1527","OBJECT_NAME":"STARLINK-2497","MEAN_MOTION_DOT":"0.00022023","GP_ID":"183332038","OBJECT_ID":"2021-040AD","CLASSIFICATION_TYPE":"U","BSTAR":"0.00149390000000","APOAPSIS":"548.362","MEAN_ELEMENT_THEORY":"SGP4","ARG_OF_PERICENTER":"91.4582","EPHEMERIS_TYPE":"0","NORAD_CAT_ID":"48455","TLE_LINE2":"2 48455  53.0513  68.1527 0001532  91.4582  28.9872 15.06371493  3585","REF_FRAME":"TEME","REV_AT_EPOCH":"358","ECCENTRICITY":"0.00015320","RCS_SIZE":"LARGE","PERIOD":"95.594","SITE":"AFETR","PERIAPSIS":"546.240","EPOCH":"2021-08-23T22:00:00.999936","SEMIMAJOR_AXIS":"6925.436","INCLINATION":"53.0513","TIME_SYSTEM":"UTC","ELEMENT_SET_NO":"999","MEAN_MOTION":"15.06371493","DECAY_DATE":null}];
